{"type":"FeatureCollection","metadata":{"generated":1789323303000,"url":"https://earthquake.usgs.gov/fdsnws/event/1/query?format=geojson&starttime=2026-09-01T00%3A00%3A00&endtime=2026-09-13T00%3A00%3A00&minlatitude=-10&maxlatitude=-2&minlongitude=102&maxlongitude=112&minmagnitude=3&orderby=time-asc","title":"USGS Earthquakes","status":200,"api":"2.7.0","count":4},"features":[{"type":"Feature","properties":{"mag":5.2,"place":"28 km S of Cilacap, Indonesia","time":1788498294278,"updated":1788587686068,"tz":null,"url":"https://earthquake.usgs.gov/earthquakes/eventpage/us7000te82","detail":"https://earthquake.usgs.gov/fdsnws/event/1/query?eventid=us7000te82&format=geojson","felt":5,"cdi":4.1,"mmi":null,"alert":null,"status":"reviewed","tsunami":0,"sig":418,"net":"us","code":"7000te82","ids":",us7000te82,","sources":",us,","types":",dyfi,origin,phase-data,","nst":65,"dmin":4.116,"rms":0.95,"gap":45,"magType":"mb","type":"earthquake","title":"M 5.2 - 28 km S of Cilacap, Indonesia"},"geometry":{"type":"Point","coordinates":[109.0409,-7.9867,10]},"id":"us7000te82"},
{"type":"Feature","properties":{"mag":5,"place":"70 km SW of Pagar Alam, Indonesia","time":1788605955678,"updated":1788619141542,"tz":null,"url":"https://earthquake.usgs.gov/earthquakes/eventpage/us7000teiy","detail":"https://earthquake.usgs.gov/fdsnws/event/1/query?eventid=us7000teiy&format=geojson","felt":1,"cdi":1,"mmi":null,"alert":null,"status":"reviewed","tsunami":0,"sig":385,"net":"us","code":"7000teiy","ids":",us7000teiy,","sources":",us,","types":",dyfi,origin,phase-data,","nst":50,"dmin":6.267,"rms":0.93,"gap":124,"magType":"mb","type":"earthquake","title":"M 5.0 - 70 km SW of Pagar Alam, Indonesia"},"geometry":{"type":"Point","coordinates":[102.7513,-4.4202,68.934]},"id":"us7000teiy"},
{"type":"Feature","properties":{"mag":4.5,"place":"108 km SSW of Pagar Alam, Indonesia","time":1788913399728,"updated":1789177065080,"tz":null,"url":"https://earthquake.usgs.gov/earthquakes/eventpage/us7000tfyn","detail":"https://earthquake.usgs.gov/fdsnws/event/1/query?eventid=us7000tfyn&format=geojson","felt":1,"cdi":1,"mmi":null,"alert":null,"status":"reviewed","tsunami":0,"sig":312,"net":"us","code":"7000tfyn","ids":",us7000tfyn,","sources":",us,","types":",dyfi,origin,phase-data,","nst":26,"dmin":6.177,"rms":0.5,"gap":88,"magType":"mb","type":"earthquake","title":"M 4.5 - 108 km SSW of Pagar Alam, Indonesia"},"geometry":{"type":"Point","coordinates":[102.8454,-4.9167,39.565]},"id":"us7000tfyn"},
{"type":"Feature","properties":{"mag":6.5,"place":"126 km NNE of Teluknaga, Indonesia","time":1789161835907,"updated":1789248599017,"tz":null,"url":"https://earthquake.usgs.gov/earthquakes/eventpage/us7000tgrk","detail":"https://earthquake.usgs.gov/fdsnws/event/1/query?eventid=us7000tgrk&format=geojson","felt":21,"cdi":3.4,"mmi":3.013,"alert":"green","status":"reviewed","tsunami":0,"sig":657,"net":"us","code":"7000tgrk","ids":",us7000tgrk,usauto7000tgrk,","sources":",us,usauto,","types":",dyfi,ground-failure,internal-moment-tensor,losspager,moment-tensor,origin,phase-data,shakemap,","nst":116,"dmin":5.557,"rms":0.73,"gap":23,"magType":"mww","type":"earthquake","title":"M 6.5 - 126 km NNE of Teluknaga, Indonesia"},"geometry":{"type":"Point","coordinates":[106.8742,-4.9832,372]},"id":"us7000tgrk"}],"bbox":[102.7513,-7.9867,10,109.0409,-4.4202,372]}