{"type": "FeatureCollection", "name": "cont_mmi", "crs": {"type": "name", "properties": {"name": "urn:ogc:def:crs:OGC:1.3:CRS84"}}, "features": [{"type": "Feature", "properties": {"value": 3.0, "units": "mmi", "color": "#a0e5ff", "weight": 2}, "geometry": {"type": "MultiLineString", "coordinates": [[[106.999564, -6.007636], [107.01384, -5.953677], [107.038331, -5.932361], [107.065417, -5.926935], [107.173765, -5.981992], [107.200852, -5.981648], [107.273084, -5.95742], [107.318228, -5.957705], [107.354344, -5.977609], [107.375765, -6.007636]], [[106.0, -5.956551], [106.081261, -5.963274], [106.102645, -5.980657], [106.114142, -6.007636]], [[106.227635, -6.007636], [106.243782, -5.975689], [106.279898, -5.955426], [106.343101, -5.983046], [106.358733, -6.007636]]]}}, {"type": "Feature", "properties": {"value": 3.5, "units": "mmi", "color": "#90f2ff", "weight": 4}, "geometry": {"type": "MultiLineString", "coordinates": [[[107.022439, -6.007636], [107.02208, -5.98965], [107.034938, -5.96267], [107.065417, -5.944682], [107.097784, -5.980657], [107.101231, -6.007636]], [[106.254363, -6.007636], [106.288927, -5.984352], [106.305583, -5.98965], [106.318306, -6.007636]], [[107.20649, -6.007636], [107.221473, -5.98965], [107.245997, -5.983874], [107.282112, -6.001935], [107.313241, -6.007636]]]}}], "metadata": {"eventid": "us7000tgrk", "longitude": 106.903, "latitude": -5.0932}, "bbox": [106.0, -6.007636, 107.375765, -5.926935]}